{
  "type": "FeatureCollection",
  "features": [
    {
      "type": "Feature",
      "properties": {
        "norad_id": 56564,
        "name": "BEIDOU-3 G4 (C62)",
        "group": "beidou",
        "lat": 0.6213490075161694,
        "lon": -6.88088779149206,
        "alt_km": 35797.52193662687,
        "timestamp": "2025-12-19T06:59:44.174035+00:00",
        "meta_object_name": "BEIDOU-3 G4 (C62)",
        "meta_object_id": "2023-066A",
        "meta_epoch": "2025-12-18T22:37:01.053120",
        "meta_mean_motion": 1.0027165,
        "meta_eccentricity": 0.00027434,
        "meta_inclination": 0.8018,
        "meta_ra_of_asc_node": 302.5246,
        "meta_arg_of_pericenter": 226.6276,
        "meta_mean_anomaly": 57.962,
        "meta_ephemeris_type": 0,
        "meta_classification_type": "U",
        "meta_norad_cat_id": 56564,
        "meta_element_set_no": 999,
        "meta_rev_at_epoch": 958,
        "meta_bstar": 0,
        "meta_mean_motion_dot": -8.5e-07,
        "meta_mean_motion_ddot": 0,
        "tle_line1": "1 56564U 23066A   25352.94237330 -.00000085  00000+0  00000+0 0  9993",
        "tle_line2": "2 56564   0.8018 302.5246 0002743 226.6276  57.9620  1.00271650  9587"
      },
      "geometry": {
        "type": "Point",
        "coordinates": [
          -6.88088779149206,
          0.6213490075161694
        ]
      }
    },
    {
      "type": "Feature",
      "properties": {
        "norad_id": 58654,
        "name": "BEIDOU-3 M28 (C50)",
        "group": "beidou",
        "lat": -55.317066399345904,
        "lon": -13.086405576171224,
        "alt_km": 21526.70163773677,
        "timestamp": "2025-12-19T06:59:44.174046+00:00",
        "meta_object_name": "BEIDOU-3 M28 (C50)",
        "meta_object_id": "2023-207A",
        "meta_epoch": "2025-12-18T08:16:11.764704",
        "meta_mean_motion": 1.86229821,
        "meta_eccentricity": 0.00026501,
        "meta_inclination": 55.5892,
        "meta_ra_of_asc_node": 68.4116,
        "meta_arg_of_pericenter": 272.4264,
        "meta_mean_anomaly": 87.5728,
        "meta_ephemeris_type": 0,
        "meta_classification_type": "U",
        "meta_norad_cat_id": 58654,
        "meta_element_set_no": 999,
        "meta_rev_at_epoch": 1347,
        "meta_bstar": 0,
        "meta_mean_motion_dot": -6.6e-07,
        "meta_mean_motion_ddot": 0,
        "tle_line1": "1 58654U 23207A   25352.34458061 -.00000066  00000+0  00000+0 0  9991",
        "tle_line2": "2 58654  55.5892  68.4116 0002650 272.4264  87.5728  1.86229821 13471"
      },
      "geometry": {
        "type": "Point",
        "coordinates": [
          -13.086405576171224,
          -55.317066399345904
        ]
      }
    },
    {
      "type": "Feature",
      "properties": {
        "norad_id": 58655,
        "name": "BEIDOU-3 M26 (C48)",
        "group": "beidou",
        "lat": 39.57677542671288,
        "lon": 102.82796183507759,
        "alt_km": 21533.171826243004,
        "timestamp": "2025-12-19T06:59:44.174057+00:00",
        "meta_object_name": "BEIDOU-3 M26 (C48)",
        "meta_object_id": "2023-207B",
        "meta_epoch": "2025-12-17T14:31:30.894816",
        "meta_mean_motion": 1.86231346,
        "meta_eccentricity": 0.0004016,
        "meta_inclination": 55.5906,
        "meta_ra_of_asc_node": 68.4229,
        "meta_arg_of_pericenter": 258.0544,
        "meta_mean_anomaly": 101.9267,
        "meta_ephemeris_type": 0,
        "meta_classification_type": "U",
        "meta_norad_cat_id": 58655,
        "meta_element_set_no": 999,
        "meta_rev_at_epoch": 1344,
        "meta_bstar": 0,
        "meta_mean_motion_dot": -7.2e-07,
        "meta_mean_motion_ddot": 0,
        "tle_line1": "1 58655U 23207B   25351.60521869 -.00000072  00000+0  00000+0 0  9994",
        "tle_line2": "2 58655  55.5906  68.4229 0004016 258.0544 101.9267  1.86231346 13443"
      },
      "geometry": {
        "type": "Point",
        "coordinates": [
          102.82796183507759,
          39.57677542671288
        ]
      }
    },
    {
      "type": "Feature",
      "properties": {
        "norad_id": 61186,
        "name": "BEIDOU-3 M25 (C47)",
        "group": "beidou",
        "lat": 10.219369959284156,
        "lon": 121.11974038237935,
        "alt_km": 21537.157798730936,
        "timestamp": "2025-12-19T06:59:44.174068+00:00",
        "meta_object_name": "BEIDOU-3 M25 (C47)",
        "meta_object_id": "2024-168B",
        "meta_epoch": "2025-12-18T00:39:01.420992",
        "meta_mean_motion": 1.86230296,
        "meta_eccentricity": 0.00054425,
        "meta_inclination": 54.6373,
        "meta_ra_of_asc_node": 308.537,
        "meta_arg_of_pericenter": 299.044,
        "meta_mean_anomaly": 100.6746,
        "meta_ephemeris_type": 0,
        "meta_classification_type": "U",
        "meta_norad_cat_id": 61186,
        "meta_element_set_no": 999,
        "meta_rev_at_epoch": 841,
        "meta_bstar": 0,
        "meta_mean_motion_dot": -8.7e-07,
        "meta_mean_motion_ddot": 0,
        "tle_line1": "1 61186U 24168B   25352.02709978 -.00000087  00000+0  00000+0 0  9996",
        "tle_line2": "2 61186  54.6373 308.5370 0005442 299.0440 100.6746  1.86230296  8415"
      },
      "geometry": {
        "type": "Point",
        "coordinates": [
          121.11974038237935,
          10.219369959284156
        ]
      }
    },
    {
      "type": "Feature",
      "properties": {
        "norad_id": 61187,
        "name": "BEIDOU-3 M27 (C49)",
        "group": "beidou",
        "lat": -43.53251148922243,
        "lon": -93.94063160189896,
        "alt_km": 21527.559186684397,
        "timestamp": "2025-12-19T06:59:44.174079+00:00",
        "meta_object_name": "BEIDOU-3 M27 (C49)",
        "meta_object_id": "2024-168C",
        "meta_epoch": "2025-12-18T11:15:38.296800",
        "meta_mean_motion": 1.86230443,
        "meta_eccentricity": 0.00025049,
        "meta_inclination": 54.6324,
        "meta_ra_of_asc_node": 308.5054,
        "meta_arg_of_pericenter": 339.4033,
        "meta_mean_anomaly": 131.6614,
        "meta_ephemeris_type": 0,
        "meta_classification_type": "U",
        "meta_norad_cat_id": 61187,
        "meta_element_set_no": 999,
        "meta_rev_at_epoch": 589,
        "meta_bstar": 0,
        "meta_mean_motion_dot": -8.4e-07,
        "meta_mean_motion_ddot": 0,
        "tle_line1": "1 61187U 24168C   25352.46919325 -.00000084  00000+0  00000+0 0  9991",
        "tle_line2": "2 61187  54.6324 308.5054 0002504 339.4033 131.6614  1.86230443  5895"
      },
      "geometry": {
        "type": "Point",
        "coordinates": [
          -93.94063160189896,
          -43.53251148922243
        ]
      }
    }
  ]
}